{
  "type": "FeatureCollection",
  "features": [
    {
      "type": "Feature",
      "properties": {
        "norad_id": 66561,
        "name": "STARLINK-35305",
        "group": "last-30-days",
        "lat": 4.167045874378818,
        "lon": -143.32182062940535,
        "alt_km": 436.3942081824798,
        "timestamp": "2025-12-26T09:30:52.339537+00:00",
        "meta_object_name": "STARLINK-35305",
        "meta_object_id": "2025-268E",
        "meta_epoch": "2025-12-26T04:00:01.998720",
        "meta_mean_motion": 15.44061183,
        "meta_eccentricity": 0.0001229,
        "meta_inclination": 43.0011,
        "meta_ra_of_asc_node": 42.4922,
        "meta_arg_of_pericenter": 258.3201,
        "meta_mean_anomaly": 77.3132,
        "meta_ephemeris_type": 0,
        "meta_classification_type": "U",
        "meta_norad_cat_id": 66561,
        "meta_element_set_no": 999,
        "meta_rev_at_epoch": 605,
        "meta_bstar": -0.049538,
        "meta_mean_motion_dot": -0.02057837,
        "meta_mean_motion_ddot": 0,
        "tle_line1": "1 66561U 25268E   25360.16668980 -.02057837  00000+0 -49538-1 0  9990",
        "tle_line2": "2 66561  43.0011  42.4922 0001229 258.3201  77.3132 15.44061183  6050"
      },
      "geometry": {
        "type": "Point",
        "coordinates": [
          -143.32182062940535,
          4.167045874378818
        ]
      }
    },
    {
      "type": "Feature",
      "properties": {
        "norad_id": 66562,
        "name": "STARLINK-35579",
        "group": "last-30-days",
        "lat": 11.696060390599055,
        "lon": -151.64656483955162,
        "alt_km": 437.98569136279366,
        "timestamp": "2025-12-26T09:30:52.339554+00:00",
        "meta_object_name": "STARLINK-35579",
        "meta_object_id": "2025-268F",
        "meta_epoch": "2025-12-26T04:00:01.998720",
        "meta_mean_motion": 15.43222404,
        "meta_eccentricity": 0.0001278,
        "meta_inclination": 43,
        "meta_ra_of_asc_node": 42.5175,
        "meta_arg_of_pericenter": 259.9143,
        "meta_mean_anomaly": 65.2397,
        "meta_ephemeris_type": 0,
        "meta_classification_type": "U",
        "meta_norad_cat_id": 66562,
        "meta_element_set_no": 999,
        "meta_rev_at_epoch": 605,
        "meta_bstar": -0.051024,
        "meta_mean_motion_dot": -0.02059471,
        "meta_mean_motion_ddot": 0,
        "tle_line1": "1 66562U 25268F   25360.16668980 -.02059471  00000+0 -51024-1 0  9990",
        "tle_line2": "2 66562  43.0000  42.5175 0001278 259.9143  65.2397 15.43222404  6059"
      },
      "geometry": {
        "type": "Point",
        "coordinates": [
          -151.64656483955162,
          11.696060390599055
        ]
      }
    },
    {
      "type": "Feature",
      "properties": {
        "norad_id": 66563,
        "name": "STARLINK-35437",
        "group": "last-30-days",
        "lat": -3.063456522685168,
        "lon": -135.57113511618923,
        "alt_km": 434.69333741661103,
        "timestamp": "2025-12-26T09:30:52.339565+00:00",
        "meta_object_name": "STARLINK-35437",
        "meta_object_id": "2025-268G",
        "meta_epoch": "2025-12-26T04:00:01.998720",
        "meta_mean_motion": 15.44901761,
        "meta_eccentricity": 0.0001316,
        "meta_inclination": 43.0004,
        "meta_ra_of_asc_node": 42.4681,
        "meta_arg_of_pericenter": 257.6997,
        "meta_mean_anomaly": 87.8514,
        "meta_ephemeris_type": 0,
        "meta_classification_type": "U",
        "meta_norad_cat_id": 66563,
        "meta_element_set_no": 999,
        "meta_rev_at_epoch": 611,
        "meta_bstar": -0.048305,
        "meta_mean_motion_dot": -0.02064698,
        "meta_mean_motion_ddot": 0,
        "tle_line1": "1 66563U 25268G   25360.16668980 -.02064698  00000+0 -48305-1 0  9996",
        "tle_line2": "2 66563  43.0004  42.4681 0001316 257.6997  87.8514 15.44901761  6119"
      },
      "geometry": {
        "type": "Point",
        "coordinates": [
          -135.57113511618923,
          -3.063456522685168
        ]
      }
    },
    {
      "type": "Feature",
      "properties": {
        "norad_id": 66564,
        "name": "STARLINK-35358",
        "group": "last-30-days",
        "lat": -9.8617212488701,
        "lon": -128.1373234489553,
        "alt_km": 433.020543063717,
        "timestamp": "2025-12-26T09:30:52.339579+00:00",
        "meta_object_name": "STARLINK-35358",
        "meta_object_id": "2025-268H",
        "meta_epoch": "2025-12-26T04:00:01.998720",
        "meta_mean_motion": 15.45746132,
        "meta_eccentricity": 0.0001223,
        "meta_inclination": 43.0005,
        "meta_ra_of_asc_node": 42.4445,
        "meta_arg_of_pericenter": 264.8501,
        "meta_mean_anomaly": 90.0593,
        "meta_ephemeris_type": 0,
        "meta_classification_type": "U",
        "meta_norad_cat_id": 66564,
        "meta_element_set_no": 999,
        "meta_rev_at_epoch": 605,
        "meta_bstar": -0.047417,
        "meta_mean_motion_dot": -0.02084307,
        "meta_mean_motion_ddot": 0,
        "tle_line1": "1 66564U 25268H   25360.16668980 -.02084307  00000+0 -47417-1 0  9999",
        "tle_line2": "2 66564  43.0005  42.4445 0001223 264.8501  90.0593 15.45746132  6053"
      },
      "geometry": {
        "type": "Point",
        "coordinates": [
          -128.1373234489553,
          -9.8617212488701
        ]
      }
    },
    {
      "type": "Feature",
      "properties": {
        "norad_id": 66565,
        "name": "STARLINK-35893",
        "group": "last-30-days",
        "lat": -16.123291372190906,
        "lon": -120.83962043761187,
        "alt_km": 431.21622530931927,
        "timestamp": "2025-12-26T09:30:52.339590+00:00",
        "meta_object_name": "STARLINK-35893",
        "meta_object_id": "2025-268J",
        "meta_epoch": "2025-12-26T04:00:01.998720",
        "meta_mean_motion": 15.46555161,
        "meta_eccentricity": 0.0001137,
        "meta_inclination": 43,
        "meta_ra_of_asc_node": 42.4231,
        "meta_arg_of_pericenter": 276.2321,
        "meta_mean_anomaly": 87.4798,
        "meta_ephemeris_type": 0,
        "meta_classification_type": "U",
        "meta_norad_cat_id": 66565,
        "meta_element_set_no": 999,
        "meta_rev_at_epoch": 589,
        "meta_bstar": -0.044209,
        "meta_mean_motion_dot": -0.02008027,
        "meta_mean_motion_ddot": 0,
        "tle_line1": "1 66565U 25268J   25360.16668980 -.02008027  00000+0 -44209-1 0  9991",
        "tle_line2": "2 66565  43.0000  42.4231 0001137 276.2321  87.4798 15.46555161  5892"
      },
      "geometry": {
        "type": "Point",
        "coordinates": [
          -120.83962043761187,
          -16.123291372190906
        ]
      }
    },
    {
      "type": "Feature",
      "properties": {
        "norad_id": 66566,
        "name": "STARLINK-35871",
        "group": "last-30-days",
        "lat": -20.2200008288992,
        "lon": -115.6458531715723,
        "alt_km": 429.93793559239293,
        "timestamp": "2025-12-26T09:30:52.339603+00:00",
        "meta_object_name": "STARLINK-35871",
        "meta_object_id": "2025-268K",
        "meta_epoch": "2025-12-26T04:00:01.998720",
        "meta_mean_motion": 15.47089785,
        "meta_eccentricity": 0.000112,
        "meta_inclination": 43.0002,
        "meta_ra_of_asc_node": 42.4081,
        "meta_arg_of_pericenter": 274.8714,
        "meta_mean_anomaly": 94.8278,
        "meta_ephemeris_type": 0,
        "meta_classification_type": "U",
        "meta_norad_cat_id": 66566,
        "meta_element_set_no": 999,
        "meta_rev_at_epoch": 594,
        "meta_bstar": -0.043745,
        "meta_mean_motion_dot": -0.0202263,
        "meta_mean_motion_ddot": 0,
        "tle_line1": "1 66566U 25268K   25360.16668980 -.02022630  00000+0 -43745-1 0  9992",
        "tle_line2": "2 66566  43.0002  42.4081 0001120 274.8714  94.8278 15.47089785  5946"
      },
      "geometry": {
        "type": "Point",
        "coordinates": [
          -115.6458531715723,
          -20.2200008288992
        ]
      }
    },
    {
      "type": "Feature",
      "properties": {
        "norad_id": 66567,
        "name": "STARLINK-35825",
        "group": "last-30-days",
        "lat": -41.72070127090144,
        "lon": -65.94902652563906,
        "alt_km": 398.26607176994276,
        "timestamp": "2025-12-26T09:30:52.339614+00:00",
        "meta_object_name": "STARLINK-35825",
        "meta_object_id": "2025-268L",
        "meta_epoch": "2025-12-24T05:35:52.806912",
        "meta_mean_motion": 15.56426808,
        "meta_eccentricity": 0.00033868,
        "meta_inclination": 43.0005,
        "meta_ra_of_asc_node": 53.7242,
        "meta_arg_of_pericenter": 293.6521,
        "meta_mean_anomaly": 66.3986,
        "meta_ephemeris_type": 0,
        "meta_classification_type": "U",
        "meta_norad_cat_id": 66567,
        "meta_element_set_no": 999,
        "meta_rev_at_epoch": 641,
        "meta_bstar": 0.0017686293,
        "meta_mean_motion_dot": 0.00130148,
        "meta_mean_motion_ddot": 0,
        "tle_line1": "1 66567U 25268L   25358.23325008  .00130148  00000+0  17686-2 0  9995",
        "tle_line2": "2 66567  43.0005  53.7242 0003386 293.6521  66.3986 15.56426808  6419"
      },
      "geometry": {
        "type": "Point",
        "coordinates": [
          -65.94902652563906,
          -41.72070127090144
        ]
      }
    }
  ]
}